IRIDIUM 150             
1 43257U 18030J   24223.92841895  .00000231  00000+0  75524-4 0  9994
2 43257  86.3972 212.6455 0002128  81.4962 278.6474 14.34217538333371
IRIDIUM 143             
1 43258U 18030K   24223.90939039  .00000025  00000+0  20110-5 0  9994
2 43258  86.3977 212.7195 0002005  84.5694 275.5730 14.34217716333301
IRIDIUM 161             
1 43478U 18047C   24223.88658446  .00001309  00000+0  38309-3 0  9996
2 43478  86.4518  10.6727 0001983  91.9048 268.2380 14.43296246327737
IRIDIUM 152             
1 43479U 18047D   24223.95187174 -.00000012  00000+0 -11348-4 0  9997
2 43479  86.3987  10.5052 0001970  93.1440 266.9981 14.34216474325705
IRIDIUM 147             
1 43480U 18047E   24223.88844150  .00000070  00000+0  17958-4 0  9990
2 43480  86.3995  10.5248 0002158  94.3196 265.8247 14.34214654325692
IRIDIUM 110             
1 43481U 18047F   24223.82502654 -.00000023  00000+0 -15176-4 0  9995
2 43481  86.3992  10.6260 0002373  95.7442 264.4025 14.34218025325676
IRIDIUM 162             
1 43482U 18047G   24223.94958129  .00001319  00000+0  38593-3 0  9995
2 43482  86.4516  10.5456 0002194  88.5928 271.5524 14.43308470327732
IRIDIUM 160             
1 43569U 18061A   24223.77086178  .00000219  00000+0  71045-4 0  9992
2 43569  86.4016 339.0418 0002191 104.2792 255.8647 14.34217315316569
